{"type": "FeatureCollection", "features": [ {"type": "Feature", "properties": {"norad_id": 31633, "name": "FENGYUN 1C DEB", "group": "fengyun-1c-debris", "lat": 22.445758577594383, "lon": -8.40590120268739, "alt_km": 917.6404746202288, "timestamp": "2025-12-06T18:50:10.451836+00:00", "meta": {"OBJECT_NAME": "FENGYUN 1C DEB", "OBJECT_ID": "1999-025CAP", "EPOCH": "2025-11-15T20:43:47.485920", "MEAN_MOTION": 14.06334417, "ECCENTRICITY": 0.00656916, "INCLINATION": 98.7152, "RA_OF_ASC_NODE": 335.0833, "ARG_OF_PERICENTER": 248.7649, "MEAN_ANOMALY": 110.6494, "EPHEMERIS_TYPE": 0, "CLASSIFICATION_TYPE": "U", "NORAD_CAT_ID": 31633, "ELEMENT_SET_NO": 999, "REV_AT_EPOCH": 56706, "BSTAR": 0.0011592605, "MEAN_MOTION_DOT": 1.907e-05, "MEAN_MOTION_DDOT": 0}, "tle": {"line1": "1 31633U 99025CAP 25319.86374405  .00001907  00000+0  11593-2 0  9995", "line2": "2 31633  98.7152 335.0833 0065691 248.7649 110.6494 14.06334417567064"}}, "geometry": {"type": "Point", "coordinates": [-8.40590120268739, 22.445758577594383]}}, {"type": "Feature", "properties": {"norad_id": 31634, "name": "FENGYUN 1C DEB", "group": "fengyun-1c-debris", "lat": 12.500529947555512, "lon": -150.7106450575901, "alt_km": 847.0063960832476, "timestamp": "2025-12-06T18:50:10.451846+00:00", "meta": {"OBJECT_NAME": "FENGYUN 1C DEB", "OBJECT_ID": "1999-025CAQ", "EPOCH": "2025-12-02T09:00:27.072576", "MEAN_MOTION": 13.94657889, "ECCENTRICITY": 0.00916924, "INCLINATION": 99.3683, "RA_OF_ASC_NODE": 22.7184, "ARG_OF_PERICENTER": 185.6903, "MEAN_ANOMALY": 174.3223, "EPHEMERIS_TYPE": 0, "CLASSIFICATION_TYPE": "U", "NORAD_CAT_ID": 31634, "ELEMENT_SET_NO": 999, "REV_AT_EPOCH": 56379, "BSTAR": 0.00031553586, "MEAN_MOTION_DOT": 3.91e-06, "MEAN_MOTION_DDOT": 0}, "tle": {"line1": "1 31634U 99025CAQ 25336.37531334  .00000391  00000+0  31554-3 0  9993", "line2": "2 31634  99.3683  22.7184 0091692 185.6903 174.3223 13.94657889563792"}}, "geometry": {"type": "Point", "coordinates": [-150.7106450575901, 12.500529947555512]}}, {"type": "Feature", "properties": {"norad_id": 31639, "name": "FENGYUN 1C DEB", "group": "fengyun-1c-debris", "lat": -65.0426201124861, "lon": 87.8176689142548, "alt_km": 940.9554869770391, "timestamp": "2025-12-06T18:50:10.451858+00:00", "meta": {"OBJECT_NAME": "FENGYUN 1C DEB", "OBJECT_ID": "1999-025CAV", "EPOCH": "2025-12-05T02:05:06.254880", "MEAN_MOTION": 13.85159749, "ECCENTRICITY": 0.01613274, "INCLINATION": 98.742, "RA_OF_ASC_NODE": 285.54, "ARG_OF_PERICENTER": 165.9373, "MEAN_ANOMALY": 256.2853, "EPHEMERIS_TYPE": 0, "CLASSIFICATION_TYPE": "U", "NORAD_CAT_ID": 31639, "ELEMENT_SET_NO": 999, "REV_AT_EPOCH": 93582, "BSTAR": 0.00017755235, "MEAN_MOTION_DOT": 1.83e-06, "MEAN_MOTION_DDOT": 0}, "tle": {"line1": "1 31639U 99025CAV 25339.08687795  .00000183  00000+0  17755-3 0  9998", "line2": "2 31639  98.7420 285.5400 0161327 165.9373 256.2853 13.85159749935822"}}, "geometry": {"type": "Point", "coordinates": [87.8176689142548, -65.0426201124861]}}, {"type": "Feature", "properties": {"norad_id": 31642, "name": "FENGYUN 1C DEB", "group": "fengyun-1c-debris", "lat": 65.21357939423162, "lon": -98.00676283079115, "alt_km": 854.5144003777305, "timestamp": "2025-12-06T18:50:10.451869+00:00", "meta": {"OBJECT_NAME": "FENGYUN 1C DEB", "OBJECT_ID": "1999-025CAY", "EPOCH": "2025-12-03T11:33:37.797408", "MEAN_MOTION": 14.33368249, "ECCENTRICITY": 0.01189908, "INCLINATION": 98.5051, "RA_OF_ASC_NODE": 59.8396, "ARG_OF_PERICENTER": 284.1031, "MEAN_ANOMALY": 74.6953, "EPHEMERIS_TYPE": 0, "CLASSIFICATION_TYPE": "U", "NORAD_CAT_ID": 31642, "ELEMENT_SET_NO": 999, "REV_AT_EPOCH": 96886, "BSTAR": 0.00051625106, "MEAN_MOTION_DOT": 1.494e-05, "MEAN_MOTION_DDOT": 0}, "tle": {"line1": "1 31642U 99025CAY 25337.48168747  .00001494  00000+0  51625-3 0  9995", "line2": "2 31642  98.5051  59.8396 0118990 284.1031  74.6953 14.33368249968867"}}, "geometry": {"type": "Point", "coordinates": [-98.00676283079115, 65.21357939423162]}}, {"type": "Feature", "properties": {"norad_id": 31644, "name": "FENGYUN 1C DEB", "group": "fengyun-1c-debris", "lat": 35.764553273519844, "lon": -136.0341998244708, "alt_km": 770.5546655674416, "timestamp": "2025-12-06T18:50:10.451879+00:00", "meta": {"OBJECT_NAME": "FENGYUN 1C DEB", "OBJECT_ID": "1999-025CBA", "EPOCH": "2025-12-03T22:14:08.253024", "MEAN_MOTION": 14.6773394, "ECCENTRICITY": 0.0154052, "INCLINATION": 98.6712, "RA_OF_ASC_NODE": 227.2502, "ARG_OF_PERICENTER": 210.7881, "MEAN_ANOMALY": 211.3803, "EPHEMERIS_TYPE": 0, "CLASSIFICATION_TYPE": "U", "NORAD_CAT_ID": 31644, "ELEMENT_SET_NO": 999, "REV_AT_EPOCH": 70915, "BSTAR": 0.0020029, "MEAN_MOTION_DOT": 0.00013613, "MEAN_MOTION_DDOT": 0}, "tle": {"line1": "1 31644U 99025CBA 25337.92648441  .00013613  00000+0  20029-2 0  9999", "line2": "2 31644  98.6712 227.2502 0154052 210.7881 211.3803 14.67733940709151"}}, "geometry": {"type": "Point", "coordinates": [-136.0341998244708, 35.764553273519844]}}, {"type": "Feature", "properties": {"norad_id": 31646, "name": "FENGYUN 1C DEB", "group": "fengyun-1c-debris", "lat": -75.69221174104075, "lon": 40.8168731547378, "alt_km": 837.1680843427539, "timestamp": "2025-12-06T18:50:10.451891+00:00", "meta": {"OBJECT_NAME": "FENGYUN 1C DEB", "OBJECT_ID": "1999-025CBC", "EPOCH": "2025-12-05T07:32:47.908896", "MEAN_MOTION": 14.14113275, "ECCENTRICITY": 0.00330507, "INCLINATION": 98.6917, "RA_OF_ASC_NODE": 2.5323, "ARG_OF_PERICENTER": 235.7952, "MEAN_ANOMALY": 124.0087, "EPHEMERIS_TYPE": 0, "CLASSIFICATION_TYPE": "U", "NORAD_CAT_ID": 31646, "ELEMENT_SET_NO": 999, "REV_AT_EPOCH": 63086, "BSTAR": 0.00079781695, "MEAN_MOTION_DOT": 1.484e-05, "MEAN_MOTION_DDOT": 0}, "tle": {"line1": "1 31646U 99025CBC 25339.31444339  .00001484  00000+0  79782-3 0  9990", "line2": "2 31646  98.6917   2.5323 0033050 235.7952 124.0087 14.14113275630865"}}, "geometry": {"type": "Point", "coordinates": [40.8168731547378, -75.69221174104075]}}, {"type": "Feature", "properties": {"norad_id": 31655, "name": "FENGYUN 1C DEB", "group": "fengyun-1c-debris", "lat": 80.40942276567534, "lon": -148.58211532871698, "alt_km": 922.2351682648768, "timestamp": "2025-12-06T18:50:10.451901+00:00", "meta": {"OBJECT_NAME": "FENGYUN 1C DEB", "OBJECT_ID": "1999-025CBM", "EPOCH": "2025-12-05T15:06:01.661760", "MEAN_MOTION": 13.6380404, "ECCENTRICITY": 0.02884805, "INCLINATION": 99.2858, "RA_OF_ASC_NODE": 285.8328, "ARG_OF_PERICENTER": 156.518, "MEAN_ANOMALY": 23.125, "EPHEMERIS_TYPE": 0, "CLASSIFICATION_TYPE": "U", "NORAD_CAT_ID": 31655, "ELEMENT_SET_NO": 999, "REV_AT_EPOCH": 59622, "BSTAR": 0.0043059807, "MEAN_MOTION_DOT": 4.489e-05, "MEAN_MOTION_DDOT": 0}, "tle": {"line1": "1 31655U 99025CBM 25339.62918590  .00004489  00000+0  43060-2 0  9996", "line2": "2 31655  99.2858 285.8328 0288480 156.5180  23.1250 13.63804040596221"}}, "geometry": {"type": "Point", "coordinates": [-148.58211532871698, 80.40942276567534]}}, {"type": "Feature", "properties": {"norad_id": 31656, "name": "FENGYUN 1C DEB", "group": "fengyun-1c-debris", "lat": -56.01946457896115, "lon": 135.1624540466777, "alt_km": 758.73771651899, "timestamp": "2025-12-06T18:50:10.451913+00:00", "meta": {"OBJECT_NAME": "FENGYUN 1C DEB", "OBJECT_ID": "1999-025CBN", "EPOCH": "2025-12-05T10:55:09.374304", "MEAN_MOTION": 14.46832046, "ECCENTRICITY": 0.00227424, "INCLINATION": 99.1933, "RA_OF_ASC_NODE": 327.623, "ARG_OF_PERICENTER": 72.7012, "MEAN_ANOMALY": 81.3899, "EPHEMERIS_TYPE": 0, "CLASSIFICATION_TYPE": "U", "NORAD_CAT_ID": 31656, "ELEMENT_SET_NO": 999, "REV_AT_EPOCH": 96350, "BSTAR": 0.0042905952, "MEAN_MOTION_DOT": 0.00015585, "MEAN_MOTION_DDOT": 0}, "tle": {"line1": "1 31656U 99025CBN 25339.45496961  .00015585  00000+0  42906-2 0  9998", "line2": "2 31656  99.1933 327.6230 0022742  72.7012  81.3899 14.46832046963505"}}, "geometry": {"type": "Point", "coordinates": [135.1624540466777, -56.01946457896115]}}, {"type": "Feature", "properties": {"norad_id": 31657, "name": "FENGYUN 1C DEB", "group": "fengyun-1c-debris", "lat": 71.17615223245643, "lon": -156.21540880319338, "alt_km": 792.1280682053111, "timestamp": "2025-12-06T18:50:10.451923+00:00", "meta": {"OBJECT_NAME": "FENGYUN 1C DEB", "OBJECT_ID": "1999-025CBP", "EPOCH": "2025-12-05T23:34:36.376608", "MEAN_MOTION": 13.96939719, "ECCENTRICITY": 0.01456048, "INCLINATION": 102.2173, "RA_OF_ASC_NODE": 242.1836, "ARG_OF_PERICENTER": 70.2331, "MEAN_ANOMALY": 291.4456, "EPHEMERIS_TYPE": 0, "CLASSIFICATION_TYPE": "U", "NORAD_CAT_ID": 31657, "ELEMENT_SET_NO": 999, "REV_AT_EPOCH": 62770, "BSTAR": 0.0049638047, "MEAN_MOTION_DOT": 7.504e-05, "MEAN_MOTION_DDOT": 0}, "tle": {"line1": "1 31657U 99025CBP 25339.98236547  .00007504  00000+0  49638-2 0  9990", "line2": "2 31657 102.2173 242.1836 0145604  70.2331 291.4456 13.96939719627702"}}, "geometry": {"type": "Point", "coordinates": [-156.21540880319338, 71.17615223245643]}}, {"type": "Feature", "properties": {"norad_id": 31658, "name": "FENGYUN 1C DEB", "group": "fengyun-1c-debris", "lat": -24.571383690681017, "lon": -165.7084976720438, "alt_km": 747.2468740799322, "timestamp": "2025-12-06T18:50:10.451933+00:00", "meta": {"OBJECT_NAME": "FENGYUN 1C DEB", "OBJECT_ID": "1999-025CBQ", "EPOCH": "2025-11-30T13:35:01.131648", "MEAN_MOTION": 13.98632883, "ECCENTRICITY": 0.0215722, "INCLINATION": 98.1534, "RA_OF_ASC_NODE": 184.9954, "ARG_OF_PERICENTER": 356.7033, "MEAN_ANOMALY": 3.2699, "EPHEMERIS_TYPE": 0, "CLASSIFICATION_TYPE": "U", "NORAD_CAT_ID": 31658, "ELEMENT_SET_NO": 999, "REV_AT_EPOCH": 69646, "BSTAR": 0.0024889, "MEAN_MOTION_DOT": 4.324e-05, "MEAN_MOTION_DDOT": 0}, "tle": {"line1": "1 31658U 99025CBQ 25334.56598532  .00004324  00000+0  24889-2 0  9993", "line2": "2 31658  98.1534 184.9954 0215722 356.7033   3.2699 13.98632883696462"}}, "geometry": {"type": "Point", "coordinates": [-165.7084976720438, -24.571383690681017]}}]}